NORAD_CAT_ID,OBJECT_NAME,OBJECT_TYPE,EPOCH,MEAN_MOTION,ECCENTRICITY,INCLINATION,RA_OF_ASC_NODE,ARG_OF_PERICENTER,MEAN_ANOMALY,BSTAR,MEAN_MOTION_DOT,MEAN_MOTION_DDOT,TLE_LINE0,TLE_LINE1,TLE_LINE2,SEMIMAJOR_AXIS,PERIOD,APOGEE,PERIGEE,DECAYED
51718.0,STARLINK-3546,PAYLOAD,2022-09-29 13:18:26,15.08842604,0.0002023,53.217,212.6069,51.4246,308.6927,4.8544e-05,4.85e-06,0.0,0 STARLINK-3546,1 51718U 22016E   22272.55446866  .00000485  00000-0  48544-4 0  9998,2 51718  53.2170 212.6069 0002023  51.4246 308.6927 15.08842604 34760,6917.871999999999,95.437,541.137,538.3380000000002,0.0
51718.0,STARLINK-3546,PAYLOAD,2022-09-30 02:01:31,15.08840242,0.0001875999999999,53.217,210.2273,54.6599,305.4569,0.00010522,1.387e-05,0.0,0 STARLINK-3546,1 51718U 22016E   22273.08439038  .00001387  00000-0  10522-3 0  9996,2 51718  53.2170 210.2273 0001876  54.6599 305.4569 15.08840242 34776,6917.88,95.438,541.0419999999998,538.447,0.0
51718.0,STARLINK-3546,PAYLOAD,2022-09-30 03:36:54,15.08838834,0.000187,53.217,209.9301,54.0169,306.0997,8.6084e-05,1.082e-05,0.0,0 STARLINK-3546,1 51718U 22016E   22273.15063136  .00001082  00000-0  86084-4 0  9995,2 51718  53.2170 209.9301 0001870  54.0169 306.0997 15.08838834 34859,6917.884,95.438,541.043,538.455,0.0
51718.0,STARLINK-3546,PAYLOAD,2022-09-30 16:19:59,15.08854161,0.0001911999999999,53.2161,207.5538,50.4434,309.6727,0.00025552,3.782e-05,0.0,0 STARLINK-3546,1 51718U 22016E   22273.68054453  .00003782  00000-0  25552-3 0  9996,2 51718  53.2161 207.5538 0001912  50.4434 309.6727 15.08854161 34869,6917.837,95.437,541.025,538.379,0.0
51718.0,STARLINK-3546,PAYLOAD,2022-09-30 19:30:45,15.08847802,0.0001899999999999,53.2162,206.9594,49.2206,310.8951,0.0001796,2.572e-05,0.0,0 STARLINK-3546,1 51718U 22016E   22273.81302758  .00002572  00000-0  17960-3 0  9995,2 51718  53.2162 206.9594 0001900  49.2206 310.8951 15.08847802 34952,6917.857,95.437,541.036,538.4069999999998,0.0
51718.0,STARLINK-3546,PAYLOAD,2022-10-01 12:59:59,15.08849374,0.0001778,53.2156,203.6865,50.5938,309.5211,0.00021112,3.074e-05,0.0,0 STARLINK-3546,1 51718U 22016E   22274.54166408  .00003074  00000-0  21112-3 0  9998,2 51718  53.2156 203.6865 0001778  50.5938 309.5211 15.08849374 35063,6917.852,95.437,540.947,538.487,0.0
51718.0,STARLINK-3546,PAYLOAD,2022-10-01 19:21:32,15.088487300000002,0.0001835,53.2159,202.4985,50.2382,309.8772,0.00021913,3.202e-05,0.0,0 STARLINK-3546,1 51718U 22016E   22274.80662489  .00003202  00000-0  21913-3 0  9999,2 51718  53.2159 202.4985 0001835  50.2382 309.8772 15.08848730 35105,6917.854,95.437,540.988,538.4490000000002,0.0
51718.0,STARLINK-3546,PAYLOAD,2022-10-02 01:43:05,15.0883858,0.0002066999999999,53.2169,201.313,42.3189,317.7963,0.00013125,1.801e-05,0.0,0 STARLINK-3546,1 51718U 22016E   22275.07158946  .00001801  00000-0  13125-3 0  9996,2 51718  53.2169 201.3130 0002067  42.3189 317.7963 15.08838580 35147,6917.885,95.438,541.18,538.32,0.0
51718.0,STARLINK-3546,PAYLOAD,2022-10-02 19:12:20,15.088285,0.0001950999999999,53.2158,198.0382,50.4422,309.6743,-6.6132e-05,-1.34e-05,0.0,0 STARLINK-3546,1 51718U 22016E   22275.80023631 -.00001340  00000-0 -66132-4 0  9996,2 51718  53.2158 198.0382 0001951  50.4422 309.6743 15.08828500 35256,6917.916,95.438,541.13,538.431,0.0
51718.0,STARLINK-3546,PAYLOAD,2022-10-03 04:44:39,15.08841513,0.0002019,53.2158,196.2541,50.9201,309.197,0.00025416,3.759e-05,0.0,0 STARLINK-3546,1 51718U 22016E   22276.19767520  .00003759  00000-0  25416-3 0  9994,2 51718  53.2158 196.2541 0002019  50.9201 309.1970 15.08841513 35244,6917.876,95.437,541.137,538.344,0.0
51718.0,STARLINK-3546,PAYLOAD,2022-10-03 19:03:07,15.08855776,0.0001966,53.2159,193.5785,49.6817,310.4347,0.00091102,0.00014247,0.0,0 STARLINK-3546,1 51718U 22016E   22276.79383348  .00014247  00000-0  91102-3 0  9991,2 51718  53.2159 193.5785 0001966  49.6817 310.4347 15.08855776 35400,6917.831999999999,95.437,541.057,538.337,0.0
51718.0,STARLINK-3546,PAYLOAD,2022-10-04 01:24:39,15.08861645,0.0001878,53.2163,192.3875,50.8652,309.2507,0.00076378,0.00011896,0.0,0 STARLINK-3546,1 51718U 22016E   22277.05878899  .00011896  00000-0  76378-3 0  9996,2 51718  53.2163 192.3875 0001878  50.8652 309.2507 15.08861645 35377,6917.814,95.436,540.9780000000002,538.38,0.0
51718.0,STARLINK-3546,PAYLOAD,2022-10-04 14:07:44,15.08857489,0.0001834,53.2158,190.0101,52.3944,307.7214,0.00032423,4.878e-05,0.0,0 STARLINK-3546,1 51718U 22016E   22277.58870547  .00004878  00000-0  32423-3 0  9991,2 51718  53.2158 190.0101 0001834  52.3944 307.7214 15.08857489 35459,6917.8269999999975,95.436,540.961,538.423,0.0
51718.0,STARLINK-3546,PAYLOAD,2022-10-04 20:29:16,15.08848911,0.000182,53.216,188.8207,46.4276,313.6867,0.00011343,1.518e-05,0.0,0 STARLINK-3546,1 51718U 22016E   22277.85366683  .00001518  00000-0  11343-3 0  9998,2 51718  53.2160 188.8207 0001820  46.4276 313.6867 15.08848911 35563,6917.853,95.437,540.977,538.4590000000002,0.0
51718.0,STARLINK-3546,PAYLOAD,2022-10-05 04:26:12,15.08832418,0.0001781,53.2166,187.3337,47.9079,312.2064,-4.4979e-05,-1.004e-05,0.0,0 STARLINK-3546,1 51718U 22016E   22278.18487247 -.00001004  00000-0 -44979-4 0  9999,2 51718  53.2166 187.3337 0001781  47.9079 312.2064 15.08832418 35547,6917.904,95.438,541.001,538.536,0.0
51718.0,STARLINK-3546,PAYLOAD,2022-10-05 10:47:45,15.08856007,0.000192,53.217,186.1436,56.2668,303.8507,0.0013407999999999,0.00021125,0.0,0 STARLINK-3546,1 51718U 22016E   22278.44982803  .00021125  00000-0  13408-2 0  9991,2 51718  53.2170 186.1436 0001920  56.2668 303.8507 15.08856007 35583,6917.831,95.437,541.025,538.368,0.0
51718.0,STARLINK-3546,PAYLOAD,2022-10-05 18:44:41,15.08847886,0.0002143,53.2168,184.6589,64.3803,295.741,0.00084422,0.00013176,0.0,0 STARLINK-3546,1 51718U 22016E   22278.78103139  .00013176  00000-0  84422-3 0  9997,2 51718  53.2168 184.6589 0002143  64.3803 295.7410 15.08847886 35702,6917.856,95.437,541.2040000000002,538.239,0.0
51718.0,STARLINK-3546,PAYLOAD,2022-10-06 01:06:13,15.08837379,0.0001841,53.2157,183.4693,57.135,302.9819,-3.8816e-05,-9.06e-06,0.0,0 STARLINK-3546,1 51718U 22016E   22279.04599187 -.00000906  00000-0 -38816-4 0  9995,2 51718  53.2157 183.4693 0001841  57.1350 302.9819 15.08837379 35748,6917.888000000001,95.438,541.0269999999998,538.48,0.0
51718.0,STARLINK-3546,PAYLOAD,2022-10-06 20:10:50,15.08850676,0.0001222,53.215,179.8981,92.4629,267.6503,0.00032196,4.841e-05,0.0,0 STARLINK-3546,1 51718U 22016E   22279.84086374  .00004841  00000-0  32196-3 0  9996,2 51718  53.2150 179.8981 0001222  92.4629 267.6503 15.08850676 35791,6917.848000000001,95.437,540.558,538.867,0.0
51718.0,STARLINK-3546,PAYLOAD,2022-10-07 10:29:19,15.08843998,0.0001813,53.2161,177.2228,49.987,310.1281,8.516e-05,1.068e-05,0.0,0 STARLINK-3546,1 51718U 22016E   22280.43702687  .00001068  00000-0  85160-4 0  9993,2 51718  53.2161 177.2228 0001813  49.9870 310.1281 15.08843998 35886,6917.868,95.437,540.987,538.479,0.0
51718.0,STARLINK-3546,PAYLOAD,2022-10-07 21:37:01,15.08836282,0.0001805,53.2159,175.1416,51.0563,309.059,-2.7551e-05,-7.27e-06,0.0,0 STARLINK-3546,1 51718U 22016E   22280.90071051 -.00000727  00000-0 -27551-4 0  9992,2 51718  53.2159 175.1416 0001805  51.0563 309.0590 15.08836282 36028,6917.892,95.438,541.005,538.508,0.0
51718.0,STARLINK-3546,PAYLOAD,2022-10-07 23:12:24,15.08836227,0.0001828,53.2163,174.8438,51.6492,308.4664,8.1877e-06,-1.58e-06,0.0,0 STARLINK-3546,1 51718U 22016E   22280.96695204 -.00000158  00000-0  81877-5 0  9999,2 51718  53.2163 174.8438 0001828  51.6492 308.4664 15.08836227 35961,6917.892,95.438,541.0219999999998,538.492,0.0
51718.0,STARLINK-3546,PAYLOAD,2022-10-08 11:55:30,15.08836952,0.0001810999999999,53.2164,172.4652,51.4552,308.6602,-2.1899e-05,-6.37e-06,0.0,0 STARLINK-3546,1 51718U 22016E   22281.49687733 -.00000637  00000-0 -21899-4 0  9996,2 51718  53.2164 172.4652 0001811  51.4552 308.6602 15.08836952 36118,6917.89,95.438,541.008,538.502,0.0
51718.0,STARLINK-3546,PAYLOAD,2022-10-08 18:17:01,15.088525400000002,0.0001854,53.2166,171.2761,52.0546,308.0614,9.6306e-05,1.245e-05,0.0,0 STARLINK-3546,1 51718U 22016E   22281.76182477  .00001245  00000-0  96306-4 0  9990,2 51718  53.2166 171.2761 0001854  52.0546 308.0614 15.08852540 36157,6917.842,95.437,540.99,538.424,0.0
51718.0,STARLINK-3546,PAYLOAD,2022-10-09 11:46:16,15.08842964,0.0001968,53.2165,168.0057,49.6658,310.4506,7.6821e-05,9.35e-06,0.0,0 STARLINK-3546,1 51718U 22016E   22282.49047031  .00000935  00000-0  76821-4 0  9992,2 51718  53.2165 168.0057 0001968  49.6658 310.4506 15.08842964 36190,6917.871,95.437,541.0980000000002,538.375,0.0
51718.0,STARLINK-3546,PAYLOAD,2022-10-09 19:43:12,15.08838551,0.0001655,53.2166,166.5178,50.5298,309.5841,0.00010003,1.304e-05,0.0,0 STARLINK-3546,1 51718U 22016E   22282.82167095  .00001304  00000-0  10003-3 0  9992,2 51718  53.2166 166.5178 0001655  50.5298 309.5841 15.08838551 36314,6917.885,95.438,540.895,538.605,0.0
51718.0,STARLINK-3546,PAYLOAD,2022-10-10 11:37:03,15.08842361,0.0001545,53.2162,163.5429,85.0494,275.0674,3.6291e-05,2.9e-06,0.0,0 STARLINK-3546,1 51718U 22016E   22283.48407141  .00000290  00000-0  36291-4 0  9995,2 51718  53.2162 163.5429 0001545  85.0494 275.0674 15.08842361 36411,6917.873000000001,95.437,540.807,538.669,0.0
51718.0,STARLINK-3546,PAYLOAD,2022-10-10 17:58:37,15.0883199,0.0001635,53.2164,162.3542,56.3868,303.728,-6.665e-05,-1.348e-05,0.0,0 STARLINK-3546,1 51718U 22016E   22283.74904178 -.00001348  00000-0 -66650-4 0  9995,2 51718  53.2164 162.3542 0001635  56.3868 303.7280 15.08831990 36386,6917.905,95.438,540.901,538.639,0.0
51718.0,STARLINK-3546,PAYLOAD,2022-10-11 11:27:52,15.08828737,0.0001894,53.2158,159.0849,51.1443,308.9718,-0.00015655,-2.778e-05,0.0,0 STARLINK-3546,1 51718U 22016E   22284.47769217 -.00002778  00000-0 -15655-3 0  9995,2 51718  53.2158 159.0849 0001894  51.1443 308.9718 15.08828737 36569,6917.915,95.438,541.09,538.47,0.0
